<?xml version='1.0' encoding='utf-8'?>
<osm version="0.6" generator="russia-map synthetic waterway fixture">
  <node id="1" lat="55.7000" lon="37.5000" version="1" />
  <node id="2" lat="55.7000" lon="37.6500" version="1" />
  <node id="3" lat="55.7020" lon="37.5000" version="1" />
  <node id="4" lat="55.7020" lon="37.6500" version="1" />
  <node id="5" lat="55.7040" lon="37.5000" version="1" />
  <node id="6" lat="55.7040" lon="37.6500" version="1" />
  <node id="7" lat="55.7060" lon="37.5000" version="1" />
  <node id="8" lat="55.7060" lon="37.6500" version="1" />
  <node id="9" lat="55.7080" lon="37.5000" version="1" />
  <node id="10" lat="55.7080" lon="37.6500" version="1" />
  <node id="11" lat="55.7100" lon="37.5000" version="1" />
  <node id="12" lat="55.7100" lon="37.6500" version="1" />
  <node id="13" lat="55.7120" lon="37.5000" version="1" />
  <node id="14" lat="55.7120" lon="37.6500" version="1" />
  <node id="15" lat="55.7140" lon="37.5000" version="1" />
  <node id="16" lat="55.7140" lon="37.6500" version="1" />
  <node id="17" lat="55.7160" lon="37.5000" version="1" />
  <node id="18" lat="55.7160" lon="37.6500" version="1" />
  <node id="19" lat="55.7180" lon="37.5000" version="1" />
  <node id="20" lat="55.7180" lon="37.6500" version="1" />
  <node id="21" lat="55.7200" lon="37.5000" version="1" />
  <node id="22" lat="55.7200" lon="37.6500" version="1" />
  <node id="23" lat="55.7220" lon="37.5000" version="1" />
  <node id="24" lat="55.7220" lon="37.6500" version="1" />
  <node id="25" lat="55.7240" lon="37.5000" version="1" />
  <node id="26" lat="55.7240" lon="37.6500" version="1" />
  <node id="27" lat="55.7260" lon="37.5000" version="1" />
  <node id="28" lat="55.7260" lon="37.6500" version="1" />
  <node id="29" lat="55.7280" lon="37.5000" version="1" />
  <node id="30" lat="55.7280" lon="37.6500" version="1" />
  <node id="31" lat="55.7300" lon="37.5000" version="1" />
  <node id="32" lat="55.7300" lon="37.6500" version="1" />
  <node id="33" lat="55.7320" lon="37.5000" version="1" />
  <node id="34" lat="55.7320" lon="37.6500" version="1" />
  <node id="35" lat="55.7340" lon="37.5000" version="1" />
  <node id="36" lat="55.7340" lon="37.6500" version="1" />
  <node id="1000" lat="55.7350" lon="37.6500" version="1" />
  <node id="1001" lat="55.7350" lon="37.5000" version="1" />
  <node id="37" lat="55.7360" lon="37.5000" version="1" />
  <node id="38" lat="55.7360" lon="37.6500" version="1" />
  <way id="100" version="1">
    <nd ref="1" />
    <nd ref="2" />
    <tag k="waterway" v="river" />
    <tag k="name" v="Synthetic River" />
  </way>
  <way id="101" version="1">
    <nd ref="3" />
    <nd ref="4" />
    <tag k="waterway" v="river" />
  </way>
  <way id="102" version="1">
    <nd ref="5" />
    <nd ref="6" />
    <tag k="waterway" v="canal" />
    <tag k="name" v="Synthetic Canal" />
    <tag k="intermittent" v="no" />
    <tag k="tidal" v="no" />
  </way>
  <way id="103" version="1">
    <nd ref="7" />
    <nd ref="8" />
    <tag k="waterway" v="canal" />
    <tag k="name" v="Synthetic CEMT Canal" />
    <tag k="CEMT" v="II" />
  </way>
  <way id="104" version="1">
    <nd ref="9" />
    <nd ref="10" />
    <tag k="waterway" v="canal" />
    <tag k="name" v="Synthetic Navigation Canal" />
    <tag k="name:en" v="Synthetic Navigation Canal" />
    <tag k="ref" v="W-TEST" />
    <tag k="boat" v="yes" />
    <tag k="motorboat" v="permissive" />
    <tag k="ship" v="designated" />
    <tag k="oneway:boat" v="yes" />
    <tag k="usage" v="main" />
    <tag k="service" v="navigation" />
    <tag k="width" v="25" />
    <tag k="operator" v="Synthetic Operator" />
    <tag k="wikidata" v="Q123" />
    <tag k="wikipedia" v="en:Synthetic" />
  </way>
  <way id="105" version="1">
    <nd ref="11" />
    <nd ref="12" />
    <tag k="waterway" v="fairway" />
    <tag k="name" v="Synthetic Fairway" />
  </way>
  <way id="106" version="1">
    <nd ref="13" />
    <nd ref="14" />
    <tag k="waterway" v="river" />
    <tag k="name" v="Synthetic Intermittent River" />
    <tag k="intermittent" v="yes" />
  </way>
  <way id="107" version="1">
    <nd ref="15" />
    <nd ref="16" />
    <tag k="waterway" v="river" />
    <tag k="name" v="Synthetic Tidal River" />
    <tag k="tidal" v="yes" />
  </way>
  <way id="108" version="1">
    <nd ref="17" />
    <nd ref="18" />
    <tag k="waterway" v="stream" />
    <tag k="name" v="Excluded Stream" />
  </way>
  <way id="109" version="1">
    <nd ref="19" />
    <nd ref="20" />
    <tag k="waterway" v="ditch" />
    <tag k="name" v="Excluded Ditch" />
  </way>
  <way id="110" version="1">
    <nd ref="21" />
    <nd ref="22" />
    <tag k="waterway" v="drain" />
    <tag k="name" v="Excluded Drain" />
  </way>
  <way id="111" version="1">
    <nd ref="23" />
    <nd ref="24" />
    <tag k="waterway" v="tidal_channel" />
    <tag k="name" v="Excluded Tidal Channel" />
  </way>
  <way id="112" version="1">
    <nd ref="25" />
    <nd ref="26" />
    <tag k="route" v="ferry" />
    <tag k="name" v="Excluded Ferry Route" />
  </way>
  <way id="113" version="1">
    <nd ref="27" />
    <nd ref="28" />
    <tag k="waterway" v="river" />
    <tag k="disused" v="yes" />
    <tag k="name" v="Excluded Disused River" />
  </way>
  <way id="114" version="1">
    <nd ref="29" />
    <nd ref="30" />
    <tag k="waterway" v="river" />
    <tag k="abandoned:waterway" v="river" />
    <tag k="name" v="Excluded Abandoned River" />
  </way>
  <way id="115" version="1">
    <nd ref="31" />
    <nd ref="32" />
    <tag k="waterway" v="canal" />
    <tag k="proposed" v="yes" />
    <tag k="name" v="Excluded Proposed Canal" />
  </way>
  <way id="116" version="1">
    <nd ref="33" />
    <nd ref="34" />
    <tag k="waterway" v="canal" />
    <tag k="construction:waterway" v="canal" />
    <tag k="name" v="Excluded Construction Canal" />
  </way>
  <way id="117" version="1">
    <nd ref="35" />
    <nd ref="36" />
    <nd ref="1000" />
    <nd ref="1001" />
    <nd ref="35" />
    <tag k="natural" v="water" />
    <tag k="name" v="Excluded Water Polygon" />
  </way>
  <way id="118" version="1">
    <nd ref="37" />
    <nd ref="38" />
    <tag k="waterway" v="river" />
    <tag k="name" v="Synthetic Reimport River" />
  </way>
</osm>
